IRIDIUM 135             
1 43070U 17083A   26175.12841662  .00000028  00000+0  27585-5 0  9995
2 43070  86.3972 319.1128 0002174  92.3187 267.8258 14.34217721445148
IRIDIUM 138             
1 43071U 17083B   26175.15378710  .00000044  00000+0  87389-5 0  9994
2 43071  86.3985 318.7987 0002278  87.1666 272.9790 14.34217651445139
IRIDIUM 116             
1 43072U 17083C   26175.12207357  .00000167  00000+0  52714-4 0  9999
2 43072  86.3970 319.1011 0002099 102.2117 257.9314 14.34217559445163
IRIDIUM 130             
1 43073U 17083D   26175.16012637  .00000028  00000+0  29887-5 0  9991
2 43073  86.3976 319.3613 0001973  95.7895 264.3525 14.34216577445119
IRIDIUM 151             
1 43074U 17083E   26175.13475913  .00000115  00000+0  33969-4 0  9991
2 43074  86.3970 319.1538 0002191  94.3425 265.8021 14.34217740445137
IRIDIUM 134             
1 43075U 17083F   26175.10304611  .00000053  00000+0  11821-4 0  9999
2 43075  86.3973 319.1753 0002125  94.0121 266.1318 14.34217550445094
IRIDIUM 137             
1 43076U 17083G   26175.11573155  .00000045  00000+0  88403-5 0  9994
2 43076  86.3974 319.2629 0002433 102.8020 257.3448 14.34217796445163
IRIDIUM 141             
1 43077U 17083H   26174.83031475  .00000031  00000+0  41592-5 0  9990
2 43077  86.3970 319.2126 0002204  91.1313 269.0136 14.34217594445129
IRIDIUM 153             
1 43078U 17083J   26175.06156726 -.00000026  00000+0 -16305-4 0  9993
2 43078  86.3963 287.5966 0002091  90.8105 269.3331 14.34217349446264
IRIDIUM 131             
1 43079U 17083K   26175.30600873  .00000004  00000+0 -54883-5 0  9997
2 43079  86.3971 319.2002 0002120  92.3468 267.7970 14.34217265445122
IRIDIUM 144             
1 43249U 18030A   26175.06790659  .00000198  00000+0  63764-4 0  9994
2 43249  86.3962 287.5228 0002202  98.2229 261.9217 14.34219512431121
IRIDIUM 149             
1 43250U 18030B   26175.07425294 -.00000020  00000+0 -14135-4 0  9991
2 43250  86.3961 287.4872 0002177  94.0558 266.0886 14.34217312431142
IRIDIUM 157             
1 43251U 18030C   26174.39559504  .00000037  00000+0  61275-5 0  9992
2 43251  86.3963 287.8242 0002215  94.8020 265.3429 14.34217928431020
IRIDIUM 140             
1 43252U 18030D   26175.04253758  .00000190  00000+0  60697-4 0  9994
2 43252  86.3962 287.5661 0002126  95.4545 264.6894 14.34216672431171
IRIDIUM 145             
1 43253U 18030E   26175.30892826 -.00000019  00000+0 -13839-4 0  9997
2 43253  86.3961 287.4273 0002040 103.5182 256.6241 14.34217339431147
IRIDIUM 146             
1 43254U 18030F   26175.08059528  .00000046  00000+0  92653-5 0  9997
2 43254  86.3961 287.5347 0002209  97.9228 262.2219 14.34217261431125
IRIDIUM 148             
1 43255U 18030G   26175.04888247  .00000021  00000+0  41872-6 0  9993
2 43255  86.3965 287.5914 0002321  96.1250 264.0210 14.34217794431156
IRIDIUM 142             
1 43256U 18030H   26174.59855815  .00000093  00000+0  26042-4 0  9997
2 43256  86.3960 287.6684 0002241  99.9878 260.1571 14.34217938431051
IRIDIUM 150             
1 43257U 18030J   26175.05522475  .00000054  00000+0  12323-4 0  9997
2 43257  86.3965 287.5938 0002177  95.7669 264.3775 14.34217062431148
IRIDIUM 143             
1 43258U 18030K   26174.54781657  .00000058  00000+0  13662-4 0  9991
2 43258  86.3966 287.8987 0002170  97.4637 262.6805 14.34218165431009
IRIDIUM 161             
1 43478U 18047C   26175.17140815  .00000265  00000+0  72905-4 0  9993
2 43478  86.4481  85.5513 0002519  81.7848 278.3638 14.43281944426143
IRIDIUM 152             
1 43479U 18047D   26174.86937615  .00000191  00000+0  61225-4 0  9992
2 43479  86.3953  85.5385 0002239  81.8579 278.2871 14.34218563423440
IRIDIUM 147             
1 43480U 18047E   26175.29433163 -.00000002  00000+0 -78792-5 0  9992
2 43480  86.3956  85.3662 0002033  86.6038 273.5390 14.34217546423507
IRIDIUM 110             
1 43481U 18047F   26175.16113751 -.00000014  00000+0 -11967-4 0  9990
2 43481  86.3961  85.5141 0002490  79.4624 280.6852 14.34217621423478
IRIDIUM 162             
1 43482U 18047G   26174.47179369  .00000234  00000+0  63697-4 0  9990
2 43482  86.4481  85.7348 0002230  82.4559 277.6895 14.43284647426031
IRIDIUM 160             
1 43569U 18061A   26175.17674200  .00000026  00000+0  21306-5 0  9995
2 43569  86.3959  53.8749 0002267  85.6961 274.4494 14.34217685414371
IRIDIUM 166             
1 43570U 18061B   26175.20211135  .00000011  00000+0 -31148-5 0  9995
2 43570  86.3956  53.8146 0002109  87.5286 272.6151 14.34217784414401
IRIDIUM 158             
1 43571U 18061C   26175.10062895  .00000086  00000+0  23563-4 0  9994
2 43571  86.3956  53.8669 0002152  83.2492 276.8949 14.34218410414354
IRIDIUM 165             
1 43572U 18061D   26174.63761916  .00000123  00000+0  36756-4 0  9992
2 43572  86.3957  54.1071 0002080  88.4385 271.7050 14.34218738414311
IRIDIUM 155             
1 43573U 18061E   26175.15771402 -.00000013  00000+0 -11875-4 0  9997
2 43573  86.3949  53.7581 0001964  83.8422 276.2997 14.34217287414357
