OBJECT_NAME,OBJECT_ID,EPOCH,MEAN_MOTION,ECCENTRICITY,INCLINATION,RA_OF_ASC_NODE,ARG_OF_PERICENTER,MEAN_ANOMALY,EPHEMERIS_TYPE,CLASSIFICATION_TYPE,NORAD_CAT_ID,ELEMENT_SET_NO,REV_AT_EPOCH,BSTAR,MEAN_MOTION_DOT,MEAN_MOTION_DDOT
IRIDIUM 135,2017-083A,2026-06-24T03:04:55.195968,14.34217721,.00021745,86.3972,319.1128,92.3187,267.8258,0,U,43070,999,44514,.2758546E-5,.28E-6,0
IRIDIUM 138,2017-083B,2026-06-24T03:41:27.205440,14.34217651,.00022781,86.3985,318.7987,87.1666,272.9790,0,U,43071,999,44513,.8738852E-5,.44E-6,0
IRIDIUM 116,2017-083C,2026-06-24T02:55:47.156448,14.34217559,.00020993,86.3970,319.1011,102.2117,257.9314,0,U,43072,999,44516,.52713539E-4,.167E-5,0
IRIDIUM 130,2017-083D,2026-06-24T03:50:34.918368,14.34216577,.00019735,86.3976,319.3613,95.7895,264.3525,0,U,43073,999,44511,.298867E-5,.28E-6,0
IRIDIUM 151,2017-083E,2026-06-24T03:14:03.188832,14.34217740,.00021912,86.3970,319.1538,94.3425,265.8021,0,U,43074,999,44513,.33968553E-4,.115E-5,0
IRIDIUM 134,2017-083F,2026-06-24T02:28:23.183904,14.34217550,.00021259,86.3973,319.1753,94.0121,266.1318,0,U,43075,999,44509,.1182107E-4,.53E-6,0
IRIDIUM 137,2017-083G,2026-06-24T02:46:39.205920,14.34217796,.00024337,86.3974,319.2629,102.8020,257.3448,0,U,43076,999,44516,.8840335E-5,.45E-6,0
IRIDIUM 141,2017-083H,2026-06-23T19:55:39.194400,14.34217594,.00022043,86.3970,319.2126,91.1313,269.0136,0,U,43077,999,44512,.4159231E-5,.31E-6,0
IRIDIUM 153,2017-083J,2026-06-24T01:28:39.411264,14.34217349,.00020913,86.3963,287.5966,90.8105,269.3331,0,U,43078,999,44626,-.16304777E-4,-.26E-6,0
IRIDIUM 131,2017-083K,2026-06-24T07:20:39.154272,14.34217265,.00021205,86.3971,319.2002,92.3468,267.7970,0,U,43079,999,44512,-.5488316E-5,.4E-7,0
IRIDIUM 144,2018-030A,2026-06-24T01:37:47.129376,14.34219512,.00022021,86.3962,287.5228,98.2229,261.9217,0,U,43249,999,43112,.63764233E-4,.198E-5,0
IRIDIUM 149,2018-030B,2026-06-24T01:46:55.454016,14.34217312,.00021774,86.3961,287.4872,94.0558,266.0886,0,U,43250,999,43114,-.14135356E-4,-.2E-6,0
IRIDIUM 157,2018-030C,2026-06-23T09:29:39.411456,14.34217928,.00022152,86.3963,287.8242,94.8020,265.3429,0,U,43251,999,43102,.6127523E-5,.37E-6,0
IRIDIUM 140,2018-030D,2026-06-24T01:01:15.246912,14.34216672,.00021268,86.3962,287.5661,95.4545,264.6894,0,U,43252,999,43117,.60697278E-4,.19E-5,0
IRIDIUM 145,2018-030E,2026-06-24T07:24:51.401664,14.34217339,.00020401,86.3961,287.4273,103.5182,256.6241,0,U,43253,999,43114,-.13839097E-4,-.19E-6,0
IRIDIUM 146,2018-030F,2026-06-24T01:56:03.432192,14.34217261,.00022098,86.3961,287.5347,97.9228,262.2219,0,U,43254,999,43112,.9265306E-5,.46E-6,0
IRIDIUM 148,2018-030G,2026-06-24T01:10:23.445408,14.34217794,.00023218,86.3965,287.5914,96.1250,264.0210,0,U,43255,999,43115,.418715E-6,.21E-6,0
IRIDIUM 142,2018-030H,2026-06-23T14:21:55.424160,14.34217938,.00022419,86.3960,287.6684,99.9878,260.1571,0,U,43256,999,43105,.26041597E-4,.93E-6,0
IRIDIUM 150,2018-030J,2026-06-24T01:19:31.418400,14.34217062,.00021773,86.3965,287.5938,95.7669,264.3775,0,U,43257,999,43114,.12322573E-4,.54E-6,0
IRIDIUM 143,2018-030K,2026-06-23T13:08:51.351648,14.34218165,.00021705,86.3966,287.8987,97.4637,262.6805,0,U,43258,999,43100,.13661592E-4,.58E-6,0
IRIDIUM 161,2018-047C,2026-06-24T04:06:49.664160,14.43281944,.00025199,86.4481,85.5513,81.7848,278.3638,0,U,43478,999,42614,.72904742E-4,.265E-5,0
IRIDIUM 152,2018-047D,2026-06-23T20:51:54.099360,14.34218563,.00022392,86.3953,85.5385,81.8579,278.2871,0,U,43479,999,42344,.61224989E-4,.191E-5,0
IRIDIUM 147,2018-047E,2026-06-24T07:03:50.252832,14.34217546,.00020334,86.3956,85.3662,86.6038,273.5390,0,U,43480,999,42350,-.7879168E-5,-.2E-7,0
IRIDIUM 110,2018-047F,2026-06-24T03:52:02.280864,14.34217621,.00024907,86.3961,85.5141,79.4624,280.6852,0,U,43481,999,42347,-.11967178E-4,-.14E-6,0
IRIDIUM 162,2018-047G,2026-06-23T11:19:22.974816,14.43284647,.00022304,86.4481,85.7348,82.4559,277.6895,0,U,43482,999,42603,.63696854E-4,.234E-5,0
IRIDIUM 160,2018-061A,2026-06-24T04:14:30.508800,14.34217685,.00022672,86.3959,53.8749,85.6961,274.4494,0,U,43569,999,41437,.2130555E-5,.26E-6,0
IRIDIUM 166,2018-061B,2026-06-24T04:51:02.420640,14.34217784,.00021098,86.3956,53.8146,87.5286,272.6151,0,U,43570,999,41440,-.3114759E-5,.11E-6,0
IRIDIUM 158,2018-061C,2026-06-24T02:24:54.341280,14.34218410,.00021528,86.3956,53.8669,83.2492,276.8949,0,U,43571,999,41435,.23563169E-4,.86E-6,0
IRIDIUM 165,2018-061D,2026-06-23T15:18:10.295424,14.34218738,.00020809,86.3957,54.1071,88.4385,271.7050,0,U,43572,999,41431,.3675559E-4,.123E-5,0
IRIDIUM 155,2018-061E,2026-06-24T03:47:06.491328,14.34217287,.00019648,86.3949,53.7581,83.8422,276.2997,0,U,43573,999,41435,-.11874634E-4,-.13E-6,0
